     2.12           N                   J                   RINEX VERSION / TYPE
SPO                 QSS                 20220102 001748 UTC PGM / RUN BY / DATE 
comment                                                     COMMENT             
QZSA   1.1176E-08 -5.2154E-08 -2.9802E-07  0.0000E+00       IONOSPHERIC CORR    
QZSB   1.0240E+05 -3.2768E+04 -1.3763E+06 -6.2259E+06       IONOSPHERIC CORR    
QZUT  1.8626451492E-09 0.000000000E+00 180224 2191          TIME SYSTEM CORR    
    18                                                      LEAP SECONDS        
                                                            END OF HEADER       
     1.810000000000E+02-6.196875000000E+01 1.402201264454E-09 2.980322858387E+00
    -3.024935722351E-06 7.524824526627E-02-2.928264439106E-05 6.494035846700E+03
     5.688000000000E+05-3.669410943985E-07-1.577414955859E+00-2.935528755188E-06
     7.117708452784E-01 1.023968750000E+03-1.540038933535E+00-2.776187067906E-09
    -1.053615315878E-09 2.000000000000E+00 2.190000000000E+03 0.000000000000E+00
     2.800000000000E+00 0.000000000000E+00 0.000000000000E+00 9.490000000000E+02
     5.652060000000E+05 2.000000000000E+00                                      
J 7 22  1  1 14  0  0.0 2.793967723846E-09 0.000000000000E+00 0.000000000000E+00
     1.810000000000E+02 7.020312500000E+02 0.000000000000E+00 2.465028330439E+00
     2.323277294636E-05 1.804972998798E-04 9.892508387566E-06 6.493476392700E+03
     5.688000000000E+05 5.291774868965E-06 5.104702673870E-01-5.090609192848E-06
     8.788582765463E-04-3.001250000000E+02 3.020009957731E+00 9.311102130492E-10
     0.000000000000E+00 2.000000000000E+00 2.190000000000E+03 0.000000000000E+00
     2.800000000000E+00 0.000000000000E+00-5.587935447693E-09 9.490000000000E+02
     5.652060000000E+05 2.000000000000E+00                                      
J 2 22  1  1 15  0  0.0-5.904585123062E-07-1.136868377216E-13 0.000000000000E+00
     1.850000000000E+02 5.594687500000E+02 1.825076021742E-10-1.213626766369E+00
     1.697801053524E-05 7.527228386607E-02 2.091750502586E-05 6.493278530100E+03
     5.724000000000E+05 1.404434442520E-06 3.000360691626E+00 1.486390829086E-06
     7.344839124202E-01-3.991250000000E+02-1.577856363594E+00-8.693219250333E-10
    -1.050758054005E-09 2.000000000000E+00 2.190000000000E+03 0.000000000000E+00
     2.800000000000E+00 0.000000000000E+00 9.313225746155E-10 9.530000000000E+02
     5.688060000000E+05 2.000000000000E+00                                      
J 3 22  1  1 15  0  0.0-1.126294955611E-05-1.364242052659E-12 0.000000000000E+00
     1.850000000000E+02-2.551562500000E+02 1.301125625676E-09-3.040298606812E+00
    -7.255002856255E-06 7.524804444984E-02-2.966448664665E-05 6.494035638800E+03
     5.724000000000E+05-6.929039955139E-07-1.577460783231E+00 3.386288881302E-06
     7.117709871815E-01 1.023968750000E+03-1.540119952864E+00-2.721899092308E-09
     1.217550715874E-09 2.000000000000E+00 2.190000000000E+03 0.000000000000E+00
     2.800000000000E+00 0.000000000000E+00 0.000000000000E+00 9.530000000000E+02
     5.688060000000E+05 2.000000000000E+00                                      
J 7 22  1  1 15  0  0.0 2.328306436539E-09 0.000000000000E+00 0.000000000000E+00
     1.850000000000E+02 7.020625000000E+02 0.000000000000E+00 2.727776674185E+00
     2.320110797882E-05 1.806982327253E-04 1.006945967674E-05 6.493475923500E+03
     5.724000000000E+05 7.471069693565E-06 5.078100049879E-01-2.589076757431E-07
     8.860177976262E-04-3.057187500000E+02 3.022431416309E+00 9.386105254673E-10
     0.000000000000E+00 2.000000000000E+00 2.190000000000E+03 0.000000000000E+00
     2.800000000000E+00 0.000000000000E+00-5.587935447693E-09 9.530000000000E+02
     5.688060000000E+05 2.000000000000E+00                                      
J 2 22  1  1 16  0  0.0-5.913898348808E-07-1.136868377216E-13 0.000000000000E+00
     1.890000000000E+02 5.210312500000E+02 5.264505002050E-10-9.511835902602E-01
     1.593120396137E-05 7.526969292667E-02 2.253800630569E-05 6.493259861000E+03
     5.760000000000E+05 7.078051567078E-08 3.000355988344E+00 2.138316631317E-06
     7.344783474799E-01-4.586250000000E+02-1.577765751911E+00-1.122546758578E-09
    -1.222908081887E-09 2.000000000000E+00 2.190000000000E+03 0.000000000000E+00
     2.800000000000E+00 0.000000000000E+00 9.313225746155E-10 9.570000000000E+02
     5.724060000000E+05 2.000000000000E+00                                      
J 3 22  1  1 16  0  0.0-1.126807183027E-05-1.364242052659E-12 0.000000000000E+00
     1.890000000000E+02-4.789375000000E+02-1.567922453121E-10-2.777716564667E+00
    -1.179985702038E-05 7.524455001112E-02-3.014318645000E-05 6.494045307200E+03
     5.760000000000E+05-6.996095180511E-06-1.577500083062E+00 4.954636096954E-06
     7.117784378232E-01 1.023968750000E+03-1.540224313051E+00-1.301482783411E-09
     2.925479000800E-09 2.000000000000E+00 2.190000000000E+03 0.000000000000E+00
     2.800000000000E+00 0.000000000000E+00 0.000000000000E+00 9.570000000000E+02
     5.724060000000E+05 2.000000000000E+00                                      
J 7 22  1  1 16  0  0.0 1.396983861923E-09 0.000000000000E+00 0.000000000000E+00
     1.890000000000E+02 7.310625000000E+02 0.000000000000E+00 2.995979867867E+00
     2.411007881165E-05 1.845478545874E-04 1.105107367039E-05 6.493466224700E+03
     5.760000000000E+05 5.610287189484E-06 5.071871032472E-01 4.608184099197E-06
     8.921269435253E-04-3.368125000000E+02 3.017361413306E+00 1.000398813483E-09
     0.000000000000E+00 2.000000000000E+00 2.190000000000E+03 0.000000000000E+00
     2.800000000000E+00 0.000000000000E+00-5.587935447693E-09 9.570000000000E+02
     5.724060000000E+05 2.000000000000E+00                                      
J 2 22  1  1 17  0  0.0-5.927868187428E-07-2.273736754432E-13 0.000000000000E+00
     1.930000000000E+02 4.010937500000E+02 1.381843273605E-09-6.887998203287E-01
     1.282244920731E-05 7.526101451367E-02 2.415291965008E-05 6.493220939600E+03
     5.796000000000E+05-8.251518011093E-07 3.000344897962E+00 9.518116712570E-07
     7.344703102079E-01-5.175625000000E+02-1.577606383078E+00-1.848648432199E-09
    -1.073973306728E-09 2.000000000000E+00 2.190000000000E+03 0.000000000000E+00
     2.800000000000E+00 0.000000000000E+00 9.313225746155E-10 9.610000000000E+02
     5.760060000000E+05 2.000000000000E+00                                      
J 3 22  1  1 17  0  0.0-1.127226278186E-05-1.364242052659E-12 0.000000000000E+00
     1.930000000000E+02-8.598125000000E+02-2.048299605615E-09-2.515016326056E+00
    -1.946836709976E-05 7.522905990481E-02-3.053992986679E-05 6.494092098200E+03
     5.796000000000E+05-9.292736649513E-06-1.577514747353E+00-7.785856723785E-07
     7.117870178378E-01 1.023968750000E+03-1.540468567705E+00 3.392998474863E-11
     2.925479000800E-09 2.000000000000E+00 2.190000000000E+03 0.000000000000E+00
     2.800000000000E+00 0.000000000000E+00 0.000000000000E+00 9.610000000000E+02
     5.760060000000E+05 2.000000000000E+00                                      
J 7 22  1  1 17  0  0.0 4.656612873077E-10 0.000000000000E+00 0.000000000000E+00
     1.930000000000E+02 7.493437500000E+02 0.000000000000E+00-3.024373030442E+00
     2.469122409821E-05 1.910572173074E-04 1.315027475357E-05 6.493450403200E+03
     5.796000000000E+05 1.167878508568E-06 5.071873402400E-01 6.595626473427E-06
     8.969955348931E-04-4.031250000000E+02 3.017040928916E+00 1.099331505856E-09
     0.000000000000E+00 2.000000000000E+00 2.190000000000E+03 0.000000000000E+00
     2.800000000000E+00 0.000000000000E+00-5.587935447693E-09 9.610000000000E+02
     5.760060000000E+05 2.000000000000E+00                                      
J 2 22  1  1 18  0  0.0-5.941838026047E-07-2.273736754432E-13 0.000000000000E+00
     1.970000000000E+02 2.814062500000E+02 2.047228132412E-09-4.263632068704E-01
     9.771436452866E-06 7.525020407047E-02 2.372451126575E-05 6.493183754000E+03
     5.832000000000E+05-1.955777406693E-07 3.000331485929E+00 2.942979335785E-07
     7.344648579123E-01-4.993750000000E+02-1.577492238895E+00-2.321525272275E-09
    -7.261016736206E-10 2.000000000000E+00 2.190000000000E+03 0.000000000000E+00
     2.800000000000E+00 0.000000000000E+00 9.313225746155E-10 9.650000000000E+02
     5.796060000000E+05 2.000000000000E+00                                      
J 3 22  1  1 18  0  0.0-1.127691939473E-05-1.364242052659E-12 0.000000000000E+00
     1.970000000000E+02-1.024000000000E+03-6.628133231211E-09-2.252525701663E+00
    -2.341903746128E-05 7.522926898673E-02-2.898462116718E-05 6.494090494200E+03
     5.832000000000E+05-2.142041921616E-06-1.577565501832E+00-1.995451748371E-05
     7.118129261170E-01 1.023968750000E+03-1.540488020127E+00 5.550231189407E-09
     2.925479000800E-09 2.000000000000E+00 2.190000000000E+03 0.000000000000E+00
     2.800000000000E+00 0.000000000000E+00 0.000000000000E+00 9.650000000000E+02
     5.796060000000E+05 2.000000000000E+00                                      
J 7 22  1  1 18  0  0.0 4.656612873077E-10 0.000000000000E+00 0.000000000000E+00
     1.970000000000E+02 7.323750000000E+02 0.000000000000E+00-2.770089350140E+00
     2.415291965008E-05 1.975030172616E-04 1.531280577183E-05 6.493434261300E+03
     5.832000000000E+05-2.807006239891E-06 5.071903172782E-01 5.090609192848E-06
     9.012175164698E-04-4.712500000000E+02 3.025268778108E+00 1.199335671430E-09
     0.000000000000E+00 2.000000000000E+00 2.190000000000E+03 0.000000000000E+00
     2.800000000000E+00 0.000000000000E+00-5.587935447693E-09 9.650000000000E+02
     5.796060000000E+05 2.000000000000E+00                                      
J 2 22  1  1 19  0  0.0-5.946494638920E-07-2.273736754432E-13 0.000000000000E+00
     2.010000000000E+02 2.524687500000E+02 2.111873682301E-09-1.638344602943E-01
     9.171664714813E-06 7.524645002559E-02 2.324394881725E-05 6.493172628400E+03
     5.868000000000E+05-5.122274160385E-07 3.000325394339E+00 2.626329660416E-07
